{
    "links": {
        "self": "http://www.neowsapp.com/rest/v1/neo/3907554?api_key=iIulBulltgU6a56xZRHN4H3l9WmuAYTsLGpBGhQ2"
    },
    "id": "3907554",
    "neo_reference_id": "3907554",
    "name": "(2019 XJ2)",
    "designation": "2019 XJ2",
    "nasa_jpl_url": "http://ssd.jpl.nasa.gov/sbdb.cgi?sstr=3907554",
    "absolute_magnitude_h": 21.2,
    "estimated_diameter": {
        "kilometers": {
            "estimated_diameter_min": 0.1529519353,
            "estimated_diameter_max": 0.3420109247
        },
        "meters": {
            "estimated_diameter_min": 152.9519353442,
            "estimated_diameter_max": 342.0109247198
        },
        "miles": {
            "estimated_diameter_min": 0.095039897,
            "estimated_diameter_max": 0.2125156703
        },
        "feet": {
            "estimated_diameter_min": 501.8108275547,
            "estimated_diameter_max": 1122.0831222578
        }
    },
    "is_potentially_hazardous_asteroid": false,
    "close_approach_data": [
        {
            "close_approach_date": "2027-12-06",
            "close_approach_date_full": "2027-Dec-06 07:00",
            "epoch_date_close_approach": 1828076400000,
            "relative_velocity": {
                "kilometers_per_second": "18.2130670977",
                "kilometers_per_hour": "65567.0415517801",
                "miles_per_hour": "40740.8097908825"
            },
            "miss_distance": {
                "astronomical": "0.4911056058",
                "lunar": "191.0400806562",
                "kilometers": "73468352.572739646",
                "miles": "45651117.4182572748"
            },
            "orbiting_body": "Earth"
        },
        {
            "close_approach_date": "2031-12-06",
            "close_approach_date_full": "2031-Dec-06 12:53",
            "epoch_date_close_approach": 1954327980000,
            "relative_velocity": {
                "kilometers_per_second": "18.3511582435",
                "kilometers_per_hour": "66064.169676442",
                "miles_per_hour": "41049.705874787"
            },
            "miss_distance": {
                "astronomical": "0.4702460266",
                "lunar": "182.9257043474",
                "kilometers": "70347803.955323342",
                "miles": "43712098.4209004396"
            },
            "orbiting_body": "Earth"
        }
    ],
    "orbital_data": {
        "orbit_id": "5",
        "orbit_determination_date": "2020-01-06 05:39:02",
        "first_observation_date": "2019-12-03",
        "last_observation_date": "2020-01-05",
        "data_arc_in_days": 33,
        "observations_used": 23,
        "orbit_uncertainty": "7",
        "minimum_orbit_intersection": ".122385",
        "jupiter_tisserand_invariant": "2.975",
        "epoch_osculation": "2459000.5",
        "eccentricity": ".6190027905607688",
        "semi_major_axis": "2.52101710647524",
        "inclination": "33.55119224532762",
        "ascending_node_longitude": "97.17375843572789",
        "orbital_period": "1462.049631929156",
        "perihelion_distance": ".9605004825156318",
        "perihelion_argument": "307.5349480431261",
        "aphelion_distance": "4.081533730434849",
        "perihelion_time": "2458777.016931073209",
        "mean_anomaly": "55.02816255798843",
        "mean_motion": ".2462296710987742",
        "equinox": "J2000",
        "orbit_class": {
            "orbit_class_type": "APO",
            "orbit_class_description": "Near-Earth asteroid orbits which cross the Earth’s orbit similar to that of 1862 Apollo",
            "orbit_class_range": "a (semi-major axis) > 1.0 AU; q (perihelion) < 1.017 AU"
        }
    },
    "is_sentry_object": false
}